[{"OBJECT_NAME":"STARLINK-34684","OBJECT_ID":"2025-152W","EPOCH":"2026-03-09T20:20:40.288992","MEAN_MOTION":15.05599692,"ECCENTRICITY":0.00022225,"INCLINATION":97.6016,"RA_OF_ASC_NODE":285.7091,"ARG_OF_PERICENTER":78.8862,"MEAN_ANOMALY":281.2614,"EPHEMERIS_TYPE":0,"CLASSIFICATION_TYPE":"U","NORAD_CAT_ID":64862,"ELEMENT_SET_NO":999,"REV_AT_EPOCH":3544,"BSTAR":-0.0011068116,"MEAN_MOTION_DOT":-0.00015974,"MEAN_MOTION_DDOT":0},{"OBJECT_NAME":"CZ-6A DEB","OBJECT_ID":"2022-151EL","EPOCH":"2026-03-09T12:09:26.951616","MEAN_MOTION":14.86893831,"ECCENTRICITY":0.00944101,"INCLINATION":98.6325,"RA_OF_ASC_NODE":168.3306,"ARG_OF_PERICENTER":70.5159,"MEAN_ANOMALY":290.6224,"EPHEMERIS_TYPE":0,"CLASSIFICATION_TYPE":"U","NORAD_CAT_ID":54412,"ELEMENT_SET_NO":999,"REV_AT_EPOCH":17774,"BSTAR":0.0014840705,"MEAN_MOTION_DOT":0.00014338,"MEAN_MOTION_DDOT":0}]
